TDRS 3                  
1 19548U 88091B   20163.40568444 -.00000309  00000-0  00000-0 0  9993
2 19548  14.1796 357.4786 0034768 325.9537  33.7210  1.00265845103370
FLTSATCOM 8 (USA 46)    
1 20253U 89077A   20163.10895811 -.00000089  00000-0  00000-0 0  9996
2 20253  13.0307   5.5649 0004628  63.7990 301.6887  1.00272091238582
SKYNET 4C               
1 20776U 90079A   20163.99219574  .00000117  00000-0  00000+0 0  9993
2 20776  13.9657   5.9607 0002310  85.4140 199.9399  1.00269912108918
TDRS 5                  
1 21639U 91054B   20163.83684003  .00000075  00000-0  00000+0 0  9995
2 21639  14.3080  10.7639 0028415  12.1645  11.2670  1.00269778105681
TDRS 6                  
1 22314U 93003B   20164.12497123 -.00000303  00000-0  00000+0 0  9995
2 22314  14.0364  13.8959 0008549  65.6117 180.3281  1.00280701100350
UFO 2 (USA 95)          
1 22787U 93056A   20164.07913274  .00000119  00000-0  00000+0 0  9995
2 22787  11.2818  15.3824 0003814  66.2706 236.3948  1.00270569 96634
USA 99 (MILSTAR-1 1)    
1 22988U 94009A   20164.06507747 -.00000302  00000-0  00000+0 0  9995
2 22988  14.1404  51.1271 0001564  21.3624 156.1467  1.00138236  9627
ASTRA 1D                
1 23331U 94070A   20164.23003825 -.00000274  00000-0  00000+0 0  9991
2 23331   9.0998  42.2361 0003588  36.9971 191.5903  1.00270888 94146
USA 107 (DSP 17)        
1 23435U 94084A   20164.27653397 -.00000174  00000-0  00000+0 0  9999
2 23435  14.5540  11.9720 0002929  80.2931 171.7825  1.00276040  9676
UFO 4 (USA 108)         
1 23467U 95003A   20164.36526233 -.00000030  00000-0  00000+0 0  9995
2 23467   9.8783  20.9620 0006247  61.3965 122.4531  1.00270872 92946
AMSC 1                  
1 23553U 95019A   20163.60657005 -.00000107  00000-0  00000-0 0  9992
2 23553  11.2583  31.2432 0009970  18.8991 322.1424  1.00273287 92140
TDRS 7                  
1 23613U 95035B   20163.85663569 -.00000210  00000-0  00000-0 0  9991
2 23613  14.1982   4.5877 0031451  32.8887 256.2282  1.00277420 91227
USA 113                 
1 23628U 95038A   20163.87023153 -.00000344  00000-0  00000+0 0  9998
2 23628  11.4327  30.1034 0002005  54.3218 233.1577  1.00267498  9589
USA 115 (MILSTAR-1 2)   
1 23712U 95060A   20164.14077027 -.00000185  00000-0  00000+0 0  9990
2 23712  13.2108  19.9930 0005549  67.0778 133.7036  1.00129444  9626
INMARSAT 3-F1           
1 23839U 96020A   20164.02205091 -.00000250  00000-0  00000+0 0  9991
2 23839   6.0645  62.3432 0007100  20.8326 156.4231  1.00000661 88593
ASTRA 1F                
1 23842U 96021A   20163.80674361  .00000134  00000-0  00000+0 0  9991
2 23842   0.0292   2.0580 0004883  84.6052 148.6636  1.00270527 88304
MSAT M1                 
1 23846U 96022A   20164.26681994 -.00000094  00000-0  00000+0 0  9993
2 23846   9.2775  41.5862 0007482  22.2465 185.7847  1.00272768 88417
INMARSAT 3-F2           
1 24307U 96053A   20164.38857745  .00000119  00000-0  00000+0 0  9999
2 24307   4.8962  71.9458 0009314   0.5860 175.5866  0.99993241 86993
AMC-1 (GE-1)            
1 24315U 96054A   20164.39034400  .00000062  00000-0  00000+0 0  9992
2 24315   3.9258  78.7770 0003329   2.0138 189.9975  1.00273515 87008
INMARSAT 3-F3           
1 24674U 96070A   20163.63660817  .00000028  00000-0  00000-0 0  9994
2 24674   5.5944  66.2741 0006181  13.2759 228.1617  1.00272726 85930
AMC-2 (GE-2)            
1 24713U 97002A   20164.39327987 -.00000218  00000-0  00000+0 0  9997
2 24713   6.3648  60.4133 0006684  26.6479 230.8407  1.00272463 36302
INTELSAT 26 (IS-26)     
1 24732U 97007A   20163.75331512 -.00000002  00000-0  00000+0 0  9992
2 24732   9.0337  43.0258 0006920  11.7708 180.5598  1.00271660 85254
USA 130 (DSP 18)        
1 24737U 97008A   20164.27811991  .00000019  00000-0  00000+0 0  9997
2 24737  13.5680  19.8229 0000255  89.6597 259.3243  1.00275599  9583
GALAXY 25 (G-25)        
1 24812U 97026A   20163.74729583  .00000150  00000-0  00000-0 0  9994
2 24812   1.9112  90.4844 0002545 347.6112 124.3274  1.00271693 84354
INTELSAT 5 (IS-5)       
1 24916U 97046A   20163.50128809  .00000083  00000-0  00000+0 0  9993
2 24916   5.6988  65.6084 0004196  19.7557 218.3729  1.00271148 83583
AMC-3 (GE-3)            
1 24936U 97050A   20164.01345365 -.00000265  00000-0  00000+0 0  9998
2 24936   2.7925  85.7759 0003306   5.7804 102.0759  1.00272691 83427
NSS-5                   
1 24957U 97053A   20163.80674361  .00000099  00000-0  00000-0 0  9996
2 24957   5.9582  63.8173 0003922  15.3342 162.3228  1.00272410 83158
USA 134                 
1 25019U 97065A   20163.47065010 -.00000071  00000-0  00000-0 0  9998
2 25019  10.2137  36.1287 0005415 339.2731 302.4985  1.00273907 10925
ASTRA 1G                
1 25071U 97076A   20163.96021562  .00000014  00000-0  00000+0 0  9991
2 25071   4.6082  73.2606 0003855   8.1204 228.2758  1.00270866 82517
INMARSAT 3-F5           
1 25153U 98006B   20163.72993589 -.00000295  00000-0  00000+0 0  9999
2 25153   4.8029  70.2777 0005211  11.5964  27.4232  1.00273381 81864
UFO 8 (USA 138)         
1 25258U 98016A   20164.36550323 -.00000031  00000-0  00000+0 0  9990
2 25258   8.6633  32.8152 0004766  44.5664 126.8715  1.00270309 81554
ASTRA 2A                
1 25462U 98050A   20163.53933604  .00000001  00000-0  00000-0 0  9997
2 25462   1.6135  93.2323 0002183 337.4461  93.7029  1.00050527 24344
JCSAT-4A                
1 25630U 99006A   20163.87588431 -.00000314  00000-0  00000-0 0  9995
2 25630   4.5914  74.0559 0001651 121.9673 155.9781  1.00272149 28588
SKYNET 4E               
1 25639U 99009B   20163.84721101 -.00000041  00000-0  00000-0 0  9994
2 25639  10.8726  21.0920 0002197  50.3180 132.9884  1.00270942 29372
ASIASAT 3S              
1 25657U 99013A   20164.51935161 -.00000229  00000-0  00000+0 0  9994
2 25657   4.7828  72.5050 0004976   0.7029 162.5523  1.00271129 77808
NIMIQ 1                 
1 25740U 99027A   20163.57990075 -.00000204  00000-0  00000+0 0  9995
2 25740   1.0840  94.2405 0005822 353.4846 294.8749  1.00271440 77182
ABS-7                   
1 25894U 99046A   20163.88062037 -.00000367  00000-0  00000-0 0  9999
2 25894   0.9628  94.9617 0003437 350.7963 248.0367  1.00269146 75103
ABS-6                   
1 25924U 99053A   20163.91594257 -.00000125  00000-0  00000+0 0  9990
2 25924   0.0176   7.7258 0002326  78.8764 302.8451  1.00271217 75848
TELSTAR 12 (ORION 2)    
1 25949U 99059A   20164.40154778 -.00000067  00000-0  00000+0 0  9993
2 25949   3.3024  83.8821 0006595 346.6312 226.0153  1.00272459 75509
AMC-4 (GE-4)            
1 25954U 99060A   20164.04493701  .00000083  00000-0  00000+0 0  9990
2 25954   0.0456 287.0464 0002862 164.5387  50.5196  1.00273451 75466
UFO 10 (USA 146)        
1 25967U 99063A   20164.04840980 -.00000190  00000-0  00000+0 0  9992
2 25967   7.8592  35.6713 0006666  46.8115 173.2995  1.00271214 75327
GALAXY 11 (G-11)        
1 26038U 99071A   20164.00926632 -.00000167  00000-0  00000+0 0  9990
2 26038   1.1976  96.3904 0000201   3.7285  70.9087  1.00272234 75053
USA 148                 
1 26052U 00001A   20163.89771684  .00000035  00000-0  00000+0 0  9995
2 26052   8.4049  46.6690 0003236  27.1172 330.4957  1.00269959  9604
ASIASTAR                
1 26107U 00016A   20163.83339771 -.00000340  00000-0  00000-0 0  9994
2 26107   4.0030  77.1914 0005168   5.0460 223.3983  1.00276282 73906
USA 149 (DSP 20)        
1 26356U 00024A   20163.77948590  .00000089  00000-0  00000+0 0  9995
2 26356  11.5385  26.4846 0002280   9.9293 339.1754  1.00265271  9578
EUTELSAT 80A            
1 26369U 00028A   20163.84198242  .00000116  00000-0  00000-0 0  9994
2 26369   3.3810  81.1530 0005715  11.1059 159.7548  1.00272694 73411
TDRS 8                  
1 26388U 00034A   20164.07348118 -.00000237  00000-0  00000+0 0  9991
2 26388   9.2235  47.5878 0017623 327.0321   1.8674  1.00267336 73156
INTELSAT 9 (IS-9)       
1 26451U 00043A   20163.39776080 -.00000294  00000-0  00000-0 0  9993
2 26451   5.6882  65.8153 0003032  16.6854 270.8841  1.00271980 22119
BRASILSAT B4            
1 26469U 00046A   20164.05247260 -.00000176  00000-0  00000+0 0  9990
2 26469   3.9794  78.5777 0003621   6.5782 102.5460  1.00270566 72613
ASTRA 2B                
1 26494U 00054A   20164.03173410  .00000113  00000-0  00000+0 0  9990
2 26494   4.5072  73.8830 0005368   9.2163 208.7425  1.00275223 72219
NSS-11 (AAP-1)          
1 26554U 00059A   20164.36813084  .00000022  00000-0  00000+0 0  9995
2 26554   0.0182  36.3309 0002704  53.9101 119.4215  1.00272999 72158
USA 153                 
1 26575U 00065A   20163.80807823 -.00000330  00000-0  00000+0 0  9990
2 26575   7.8876  49.9354 0001708  21.2270 254.7696  1.00272321  9586
AMC-6 (GE-6)            
1 26580U 00067A   20164.34458528 -.00000219  00000-0  00000+0 0  9998
2 26580   0.0203 320.1694 0002784 138.6424 203.3535  1.00271141 71963
INTELSAT 12 (IS-12)     
1 26590U 00068A   20164.11242734  .00000008  00000-0  00000+0 0  9990
2 26590   2.9211  86.2702 0007518  17.1353 262.1847  1.00272860 71784
INTELSAT 1R (IS-1R)     
1 26608U 00072A   20163.84377880 -.00000143  00000-0  00000-0 0  9997
2 26608   2.7254  86.5362 0000698 231.2666  43.6880  1.00271678 19295
ANIK F1                 
1 26624U 00076A   20163.43018372 -.00000079  00000-0  00000-0 0  9990
2 26624   0.0512 116.3535 0002154  36.7549 154.6684  1.00267531 21114
ASTRA 2D                
1 26638U 00081A   20163.83414765  .00000056  00000-0  00000-0 0  9995
2 26638   5.7815  64.7390 0001507  10.0274 183.4313  1.00275749 30886
AMC-8 (GE-8)            
1 26639U 00081B   20164.04493701  .00000082  00000-0  00000+0 0  9995
2 26639   0.6487  95.7709 0000503 227.7427 175.6734  1.00409017 71259
USA 157 (MILSTAR-2 2)   
1 26715U 01009A   20163.98349322 -.00000315  00000-0  00000+0 0  9992
2 26715   9.3260  30.5802 0002542  51.5244 310.4591  1.00269248  9627
